[{"OBJECT_NAME":"ORBITER SN3","OBJECT_ID":"2023-084AE","EPOCH":"2026-03-09T23:12:21.976128","MEAN_MOTION":15.32943891,"ECCENTRICITY":0.00075889,"INCLINATION":97.61,"RA_OF_ASC_NODE":206.6768,"ARG_OF_PERICENTER":331.7947,"MEAN_ANOMALY":28.2883,"EPHEMERIS_TYPE":0,"CLASSIFICATION_TYPE":"U","NORAD_CAT_ID":56960,"ELEMENT_SET_NO":999,"REV_AT_EPOCH":15228,"BSTAR":0.00032835432,"MEAN_MOTION_DOT":0.00010378,"MEAN_MOTION_DDOT":0},{"OBJECT_NAME":"STARLINK-34250","OBJECT_ID":"2025-139AC","EPOCH":"2026-03-09T10:23:12.490080","MEAN_MOTION":15.30168667,"ECCENTRICITY":0.00011968,"INCLINATION":53.1585,"RA_OF_ASC_NODE":128.3064,"ARG_OF_PERICENTER":73.6942,"MEAN_ANOMALY":286.4191,"EPHEMERIS_TYPE":0,"CLASSIFICATION_TYPE":"U","NORAD_CAT_ID":64690,"ELEMENT_SET_NO":999,"REV_AT_EPOCH":4024,"BSTAR":0.00085387979,"MEAN_MOTION_DOT":0.00024991,"MEAN_MOTION_DDOT":0}]
